EXO-0                   
1 59175U 23174DK  26068.71046781  .00011582  00000+0  36716-3 0  9992
2 59175  97.3864 148.9039 0009878 157.1125 203.0559 15.32821991129797
STARLINK-33862          
1 63709U 25087N   26068.71330931  .00030746  00000+0  10458-2 0  9995
2 63709  53.1574 219.4155 0000844  97.5132 262.5964 15.30204885 49207
